[{"OBJECT_NAME":"KUIPER-00015","OBJECT_ID":"2025-088H","EPOCH":"2026-03-09T12:30:02.006784","MEAN_MOTION":14.83626832,"ECCENTRICITY":0.00099098,"INCLINATION":51.8981,"RA_OF_ASC_NODE":119.0847,"ARG_OF_PERICENTER":68.1403,"MEAN_ANOMALY":292.0614,"EPHEMERIS_TYPE":0,"CLASSIFICATION_TYPE":"U","NORAD_CAT_ID":63731,"ELEMENT_SET_NO":999,"REV_AT_EPOCH":4767,"BSTAR":-0.0010321655,"MEAN_MOTION_DOT":-8.826e-5,"MEAN_MOTION_DDOT":0},{"OBJECT_NAME":"SL-14 R\/B","OBJECT_ID":"1988-093B","EPOCH":"2026-03-09T22:21:05.482944","MEAN_MOTION":14.85656883,"ECCENTRICITY":0.00217506,"INCLINATION":82.5306,"RA_OF_ASC_NODE":41.8167,"ARG_OF_PERICENTER":40.7424,"MEAN_ANOMALY":18.5334,"EPHEMERIS_TYPE":0,"CLASSIFICATION_TYPE":"U","NORAD_CAT_ID":19574,"ELEMENT_SET_NO":999,"REV_AT_EPOCH":105,"BSTAR":8.475997e-5,"MEAN_MOTION_DOT":7.62e-6,"MEAN_MOTION_DDOT":0}]
